STARLINK-5044           
1 53898U 22119N   24002.78909843  .00000867  00000+0  72551-4 0  9998
2 53898  53.2184 301.2679 0001308 101.7050 258.4089 15.08834830 71387
STARLINK-5042           
1 53899U 22119P   24003.05774023  .00005970  00000+0  39293-3 0  9995
2 53899  53.2170 300.0981 0001518 107.2339 252.8820 15.08832472 71000
STARLINK-5045           
1 53900U 22119Q   24003.11292336  .00000147  00000+0  27347-4 0  9996
2 53900  53.2178 299.7344 0001483  97.6222 262.4939 15.08838999 71011
STARLINK-5024           
1 53901U 22119R   24003.12767399 -.00006450  00000+0 -38784-3 0  9995
2 53901  53.2169 299.8245 0001246 105.9545 254.1584 15.08811254 71010
STARLINK-5021           
1 53902U 22119S   24002.91513636  .00000981  00000+0  79737-4 0  9990
2 53902  53.2173 250.7362 0001591  99.3110 260.8062 15.08837687 72103
STARLINK-5022           
1 53903U 22119T   24003.12862268  .00000309  00000+0  37481-4 0  9997
2 53903  53.2185 299.8265 0001469  84.0189 276.0971 15.08841911 71016
STARLINK-4787           
1 53904U 22119U   24002.84427832  .00000405  00000+0  43520-4 0  9998
2 53904  53.2181 300.8972 0001480 111.6047 248.5103 15.08835400 71392
STARLINK-5003           
1 53905U 22119V   24003.09919021  .00000616  00000+0  56799-4 0  9999
2 53905  53.2179 290.3683 0001339  94.2754 265.8391 15.08843445 71148
STARLINK-5054           
1 53906U 22119W   24003.10535433  .00000993  00000+0  83830-4 0  9997
2 53906  53.2177 290.4094 0001415  91.6064 268.5090 15.07210495 71142
STARLINK-5063           
1 53907U 22119X   24003.10555583 -.00000483  00000+0 -12276-4 0  9998
2 53907  53.2172 299.6905 0001497  92.5091 267.6073 15.08839535 71010
STARLINK-5057           
1 53908U 22119Y   24002.82686474  .00001195  00000+0  93167-4 0  9998
2 53908  53.2179 291.5289 0001642  92.6745 267.4435 15.08841537 71524
STARLINK-4796           
1 53909U 22119Z   24003.10286885 -.00003075  00000+0 -17505-3 0  9995
2 53909  53.2184 290.3989 0001430 103.7945 256.3207 15.08863471 71149
STARLINK-5056           
1 53910U 22119AA  24002.81949496  .00003687  00000+0  24959-3 0  9996
2 53910  53.2173 291.4777 0001898 101.8882 258.2323 15.08845924 71528
STARLINK-5048           
1 53911U 22119AB  24003.16173301  .00004300  00000+0  28794-3 0  9994
2 53911  53.2180 290.0589 0001324  98.4851 261.6291 15.08856758 71152
STARLINK-5059           
1 53912U 22119AC  24003.11015533  .00003129  00000+0  21458-3 0  9990
2 53912  53.2177 289.7489 0001212  77.3742 282.7386 15.08839502 71151
STARLINK-5053           
1 53913U 22119AD  24003.07707762  .00000095  00000+0  24048-4 0  9996
2 53913  53.2173 290.2324 0001566 121.7815 238.3329 15.08846531 71143
STARLINK-5040           
1 53914U 22119AE  24002.94091711  .00000090  00000+0  23758-4 0  9994
2 53914  53.2185 290.8117 0001524 105.0547 255.0614 15.08843109 71549
