[{"OBJECT_NAME":"STARLINK-5044","OBJECT_ID":"2022-119N","EPOCH":"2024-01-02T18:56:18.104352","MEAN_MOTION":15.0883483,"ECCENTRICITY":0.0001308,"INCLINATION":53.2184,"RA_OF_ASC_NODE":301.2679,"ARG_OF_PERICENTER":101.705,"MEAN_ANOMALY":258.4089,"EPHEMERIS_TYPE":0,"CLASSIFICATION_TYPE":"U","NORAD_CAT_ID":53898,"ELEMENT_SET_NO":999,"REV_AT_EPOCH":7138,"BSTAR":7.2551e-5,"MEAN_MOTION_DOT":8.67e-6,"MEAN_MOTION_DDOT":0},{"OBJECT_NAME":"STARLINK-5042","OBJECT_ID":"2022-119P","EPOCH":"2024-01-03T01:23:08.755872","MEAN_MOTION":15.08832472,"ECCENTRICITY":0.0001518,"INCLINATION":53.217,"RA_OF_ASC_NODE":300.0981,"ARG_OF_PERICENTER":107.2339,"MEAN_ANOMALY":252.882,"EPHEMERIS_TYPE":0,"CLASSIFICATION_TYPE":"U","NORAD_CAT_ID":53899,"ELEMENT_SET_NO":999,"REV_AT_EPOCH":7100,"BSTAR":0.00039293,"MEAN_MOTION_DOT":5.97e-5,"MEAN_MOTION_DDOT":0},{"OBJECT_NAME":"STARLINK-5045","OBJECT_ID":"2022-119Q","EPOCH":"2024-01-03T02:42:36.578304","MEAN_MOTION":15.08838999,"ECCENTRICITY":0.0001483,"INCLINATION":53.2178,"RA_OF_ASC_NODE":299.7344,"ARG_OF_PERICENTER":97.6222,"MEAN_ANOMALY":262.4939,"EPHEMERIS_TYPE":0,"CLASSIFICATION_TYPE":"U","NORAD_CAT_ID":53900,"ELEMENT_SET_NO":999,"REV_AT_EPOCH":7101,"BSTAR":2.7347e-5,"MEAN_MOTION_DOT":1.47e-6,"MEAN_MOTION_DDOT":0},{"OBJECT_NAME":"STARLINK-5024","OBJECT_ID":"2022-119R","EPOCH":"2024-01-03T03:03:51.032736","MEAN_MOTION":15.08811254,"ECCENTRICITY":0.0001246,"INCLINATION":53.2169,"RA_OF_ASC_NODE":299.8245,"ARG_OF_PERICENTER":105.9545,"MEAN_ANOMALY":254.1584,"EPHEMERIS_TYPE":0,"CLASSIFICATION_TYPE":"U","NORAD_CAT_ID":53901,"ELEMENT_SET_NO":999,"REV_AT_EPOCH":7101,"BSTAR":-0.00038784,"MEAN_MOTION_DOT":-6.45e-5,"MEAN_MOTION_DDOT":0},{"OBJECT_NAME":"STARLINK-5021","OBJECT_ID":"2022-119S","EPOCH":"2024-01-02T21:57:47.781504","MEAN_MOTION":15.08837687,"ECCENTRICITY":0.0001591,"INCLINATION":53.2173,"RA_OF_ASC_NODE":250.7362,"ARG_OF_PERICENTER":99.311,"MEAN_ANOMALY":260.8062,"EPHEMERIS_TYPE":0,"CLASSIFICATION_TYPE":"U","NORAD_CAT_ID":53902,"ELEMENT_SET_NO":999,"REV_AT_EPOCH":7210,"BSTAR":7.9737e-5,"MEAN_MOTION_DOT":9.81e-6,"MEAN_MOTION_DDOT":0},{"OBJECT_NAME":"STARLINK-5022","OBJECT_ID":"2022-119T","EPOCH":"2024-01-03T03:05:12.999552","MEAN_MOTION":15.08841911,"ECCENTRICITY":0.0001469,"INCLINATION":53.2185,"RA_OF_ASC_NODE":299.8265,"ARG_OF_PERICENTER":84.0189,"MEAN_ANOMALY":276.0971,"EPHEMERIS_TYPE":0,"CLASSIFICATION_TYPE":"U","NORAD_CAT_ID":53903,"ELEMENT_SET_NO":999,"REV_AT_EPOCH":7101,"BSTAR":3.7481e-5,"MEAN_MOTION_DOT":3.09e-6,"MEAN_MOTION_DDOT":0},{"OBJECT_NAME":"STARLINK-4787","OBJECT_ID":"2022-119U","EPOCH":"2024-01-02T20:15:45.646848","MEAN_MOTION":15.088354,"ECCENTRICITY":0.000148,"INCLINATION":53.2181,"RA_OF_ASC_NODE":300.8972,"ARG_OF_PERICENTER":111.6047,"MEAN_ANOMALY":248.5103,"EPHEMERIS_TYPE":0,"CLASSIFICATION_TYPE":"U","NORAD_CAT_ID":53904,"ELEMENT_SET_NO":999,"REV_AT_EPOCH":7139,"BSTAR":4.352e-5,"MEAN_MOTION_DOT":4.05e-6,"MEAN_MOTION_DDOT":0},{"OBJECT_NAME":"STARLINK-5003","OBJECT_ID":"2022-119V","EPOCH":"2024-01-03T02:22:50.034144","MEAN_MOTION":15.08843445,"ECCENTRICITY":0.0001339,"INCLINATION":53.2179,"RA_OF_ASC_NODE":290.3683,"ARG_OF_PERICENTER":94.2754,"MEAN_ANOMALY":265.8391,"EPHEMERIS_TYPE":0,"CLASSIFICATION_TYPE":"U","NORAD_CAT_ID":53905,"ELEMENT_SET_NO":999,"REV_AT_EPOCH":7114,"BSTAR":5.6799e-5,"MEAN_MOTION_DOT":6.16e-6,"MEAN_MOTION_DDOT":0},{"OBJECT_NAME":"STARLINK-5054","OBJECT_ID":"2022-119W","EPOCH":"2024-01-03T02:31:42.614112","MEAN_MOTION":15.07210495,"ECCENTRICITY":0.0001415,"INCLINATION":53.2177,"RA_OF_ASC_NODE":290.4094,"ARG_OF_PERICENTER":91.6064,"MEAN_ANOMALY":268.509,"EPHEMERIS_TYPE":0,"CLASSIFICATION_TYPE":"U","NORAD_CAT_ID":53906,"ELEMENT_SET_NO":999,"REV_AT_EPOCH":7114,"BSTAR":8.383e-5,"MEAN_MOTION_DOT":9.93e-6,"MEAN_MOTION_DDOT":0},{"OBJECT_NAME":"STARLINK-5063","OBJECT_ID":"2022-119X","EPOCH":"2024-01-03T02:32:00.023712","MEAN_MOTION":15.08839535,"ECCENTRICITY":0.0001497,"INCLINATION":53.2172,"RA_OF_ASC_NODE":299.6905,"ARG_OF_PERICENTER":92.5091,"MEAN_ANOMALY":267.6073,"EPHEMERIS_TYPE":0,"CLASSIFICATION_TYPE":"U","NORAD_CAT_ID":53907,"ELEMENT_SET_NO":999,"REV_AT_EPOCH":7101,"BSTAR":-1.2276e-5,"MEAN_MOTION_DOT":-4.83e-6,"MEAN_MOTION_DDOT":0},{"OBJECT_NAME":"STARLINK-5057","OBJECT_ID":"2022-119Y","EPOCH":"2024-01-02T19:50:41.113536","MEAN_MOTION":15.08841537,"ECCENTRICITY":0.0001642,"INCLINATION":53.2179,"RA_OF_ASC_NODE":291.5289,"ARG_OF_PERICENTER":92.6745,"MEAN_ANOMALY":267.4435,"EPHEMERIS_TYPE":0,"CLASSIFICATION_TYPE":"U","NORAD_CAT_ID":53908,"ELEMENT_SET_NO":999,"REV_AT_EPOCH":7152,"BSTAR":9.3167e-5,"MEAN_MOTION_DOT":1.195e-5,"MEAN_MOTION_DDOT":0},{"OBJECT_NAME":"STARLINK-4796","OBJECT_ID":"2022-119Z","EPOCH":"2024-01-03T02:28:07.868640","MEAN_MOTION":15.08863471,"ECCENTRICITY":0.000143,"INCLINATION":53.2184,"RA_OF_ASC_NODE":290.3989,"ARG_OF_PERICENTER":103.7945,"MEAN_ANOMALY":256.3207,"EPHEMERIS_TYPE":0,"CLASSIFICATION_TYPE":"U","NORAD_CAT_ID":53909,"ELEMENT_SET_NO":999,"REV_AT_EPOCH":7114,"BSTAR":-0.00017505,"MEAN_MOTION_DOT":-3.075e-5,"MEAN_MOTION_DDOT":0},{"OBJECT_NAME":"STARLINK-5056","OBJECT_ID":"2022-119AA","EPOCH":"2024-01-02T19:40:04.364544","MEAN_MOTION":15.08845924,"ECCENTRICITY":0.0001898,"INCLINATION":53.2173,"RA_OF_ASC_NODE":291.4777,"ARG_OF_PERICENTER":101.8882,"MEAN_ANOMALY":258.2323,"EPHEMERIS_TYPE":0,"CLASSIFICATION_TYPE":"U","NORAD_CAT_ID":53910,"ELEMENT_SET_NO":999,"REV_AT_EPOCH":7152,"BSTAR":0.00024959,"MEAN_MOTION_DOT":3.687e-5,"MEAN_MOTION_DDOT":0},{"OBJECT_NAME":"STARLINK-5048","OBJECT_ID":"2022-119AB","EPOCH":"2024-01-03T03:52:53.732064","MEAN_MOTION":15.08856758,"ECCENTRICITY":0.0001324,"INCLINATION":53.218,"RA_OF_ASC_NODE":290.0589,"ARG_OF_PERICENTER":98.4851,"MEAN_ANOMALY":261.6291,"EPHEMERIS_TYPE":0,"CLASSIFICATION_TYPE":"U","NORAD_CAT_ID":53911,"ELEMENT_SET_NO":999,"REV_AT_EPOCH":7115,"BSTAR":0.00028794,"MEAN_MOTION_DOT":4.3e-5,"MEAN_MOTION_DDOT":0},{"OBJECT_NAME":"STARLINK-5059","OBJECT_ID":"2022-119AC","EPOCH":"2024-01-03T02:38:37.420512","MEAN_MOTION":15.08839502,"ECCENTRICITY":0.0001212,"INCLINATION":53.2177,"RA_OF_ASC_NODE":289.7489,"ARG_OF_PERICENTER":77.3742,"MEAN_ANOMALY":282.7386,"EPHEMERIS_TYPE":0,"CLASSIFICATION_TYPE":"U","NORAD_CAT_ID":53912,"ELEMENT_SET_NO":999,"REV_AT_EPOCH":7115,"BSTAR":0.00021458,"MEAN_MOTION_DOT":3.129e-5,"MEAN_MOTION_DDOT":0},{"OBJECT_NAME":"STARLINK-5053","OBJECT_ID":"2022-119AD","EPOCH":"2024-01-03T01:50:59.506368","MEAN_MOTION":15.08846531,"ECCENTRICITY":0.0001566,"INCLINATION":53.2173,"RA_OF_ASC_NODE":290.2324,"ARG_OF_PERICENTER":121.7815,"MEAN_ANOMALY":238.3329,"EPHEMERIS_TYPE":0,"CLASSIFICATION_TYPE":"U","NORAD_CAT_ID":53913,"ELEMENT_SET_NO":999,"REV_AT_EPOCH":7114,"BSTAR":2.4048e-5,"MEAN_MOTION_DOT":9.5e-7,"MEAN_MOTION_DDOT":0},{"OBJECT_NAME":"STARLINK-5040","OBJECT_ID":"2022-119AE","EPOCH":"2024-01-02T22:34:55.238304","MEAN_MOTION":15.08843109,"ECCENTRICITY":0.0001524,"INCLINATION":53.2185,"RA_OF_ASC_NODE":290.8117,"ARG_OF_PERICENTER":105.0547,"MEAN_ANOMALY":255.0614,"EPHEMERIS_TYPE":0,"CLASSIFICATION_TYPE":"U","NORAD_CAT_ID":53914,"ELEMENT_SET_NO":999,"REV_AT_EPOCH":7154,"BSTAR":2.3758e-5,"MEAN_MOTION_DOT":9.0e-7,"MEAN_MOTION_DDOT":0}]
